{
    "links": {
        "self": "http://www.neowsapp.com/rest/v1/neo/54054604?api_key=iIulBulltgU6a56xZRHN4H3l9WmuAYTsLGpBGhQ2"
    },
    "id": "54054604",
    "neo_reference_id": "54054604",
    "name": "(2020 SE4)",
    "designation": "2020 SE4",
    "nasa_jpl_url": "http://ssd.jpl.nasa.gov/sbdb.cgi?sstr=54054604",
    "absolute_magnitude_h": 20.481,
    "estimated_diameter": {
        "kilometers": {
            "estimated_diameter_min": 0.2129879221,
            "estimated_diameter_max": 0.4762554722
        },
        "meters": {
            "estimated_diameter_min": 212.9879220973,
            "estimated_diameter_max": 476.255472196
        },
        "miles": {
            "estimated_diameter_min": 0.1323445181,
            "estimated_diameter_max": 0.295931339
        },
        "feet": {
            "estimated_diameter_min": 698.7792943337,
            "estimated_diameter_max": 1562.5180033994
        }
    },
    "is_potentially_hazardous_asteroid": false,
    "close_approach_data": [
        {
            "close_approach_date": "1974-11-09",
            "close_approach_date_full": "1974-Nov-09 11:20",
            "epoch_date_close_approach": 153228000000,
            "relative_velocity": {
                "kilometers_per_second": "11.4899673102",
                "kilometers_per_hour": "41363.8823165674",
                "miles_per_hour": "25701.9078760915"
            },
            "miss_distance": {
                "astronomical": "0.1920582519",
                "lunar": "74.7106599891",
                "kilometers": "28731505.400163453",
                "miles": "17852929.6043155314"
            },
            "orbiting_body": "Earth"
        },
        {
            "close_approach_date": "1981-11-28",
            "close_approach_date_full": "1981-Nov-28 18:07",
            "epoch_date_close_approach": 375818820000,
            "relative_velocity": {
                "kilometers_per_second": "22.3095707852",
                "kilometers_per_hour": "80314.454826563",
                "miles_per_hour": "49904.2788893164"
            },
            "miss_distance": {
                "astronomical": "0.4651695153",
                "lunar": "180.9509414517",
                "kilometers": "69588368.677812411",
                "miles": "43240207.2213408318"
            },
            "orbiting_body": "Earth"
        },
        {
            "close_approach_date": "2020-11-02",
            "close_approach_date_full": "2020-Nov-02 10:31",
            "epoch_date_close_approach": 1604313060000,
            "relative_velocity": {
                "kilometers_per_second": "9.5793056691",
                "kilometers_per_hour": "34485.5004087556",
                "miles_per_hour": "21427.9488512071"
            },
            "miss_distance": {
                "astronomical": "0.2725931445",
                "lunar": "106.0387332105",
                "kilometers": "40779353.793802215",
                "miles": "25339115.457071967"
            },
            "orbiting_body": "Earth"
        },
        {
            "close_approach_date": "2027-11-21",
            "close_approach_date_full": "2027-Nov-21 15:31",
            "epoch_date_close_approach": 1826811060000,
            "relative_velocity": {
                "kilometers_per_second": "17.7635646467",
                "kilometers_per_hour": "63948.8327281639",
                "miles_per_hour": "39735.3177582305"
            },
            "miss_distance": {
                "astronomical": "0.3081188818",
                "lunar": "119.8582450202",
                "kilometers": "46093928.424061766",
                "miles": "28641439.0015377308"
            },
            "orbiting_body": "Earth"
        },
        {
            "close_approach_date": "2073-11-17",
            "close_approach_date_full": "2073-Nov-17 04:52",
            "epoch_date_close_approach": 3278119920000,
            "relative_velocity": {
                "kilometers_per_second": "15.6529613455",
                "kilometers_per_hour": "56350.6608439278",
                "miles_per_hour": "35014.1092338284"
            },
            "miss_distance": {
                "astronomical": "0.2475653771",
                "lunar": "96.3029316919",
                "kilometers": "37035253.099906777",
                "miles": "23012639.1660244426"
            },
            "orbiting_body": "Earth"
        }
    ],
    "orbital_data": {
        "orbit_id": "14",
        "orbit_determination_date": "2020-11-27 05:18:53",
        "first_observation_date": "2020-09-18",
        "last_observation_date": "2020-11-26",
        "data_arc_in_days": 69,
        "observations_used": 99,
        "orbit_uncertainty": "6",
        "minimum_orbit_intersection": ".183506",
        "jupiter_tisserand_invariant": "3.308",
        "epoch_osculation": "2459000.5",
        "eccentricity": ".547551467363159",
        "semi_major_axis": "2.320955090005968",
        "inclination": "17.42562651664977",
        "ascending_node_longitude": "71.13005089096991",
        "orbital_period": "1291.512257734655",
        "perihelion_distance": "1.050112724789207",
        "perihelion_argument": "301.2625024627743",
        "aphelion_distance": "3.591797455222728",
        "perihelion_time": "2459120.858975816999",
        "mean_anomaly": "326.4507781210531",
        "mean_motion": ".2787429990261564",
        "equinox": "J2000",
        "orbit_class": {
            "orbit_class_type": "AMO",
            "orbit_class_description": "Near-Earth asteroid orbits similar to that of 1221 Amor",
            "orbit_class_range": "1.017 AU < q (perihelion) < 1.3 AU"
        }
    },
    "is_sentry_object": false
}